NANOSATC-BR1            
1 40024U 14033Q   26068.98267556  .00020336  00000+0  74295-3 0  9994
2 40024  98.0845  92.7804 0004644 147.6715 212.4808 15.28136801638811
STARLINK-31940          
1 59873U 24098R   26068.55527965  .00000218  00000+0  17422-4 0  9991
2 59873  43.0013 271.1418 0000520 241.0178 119.0622 15.27575351101913
